[{"OBJECT_NAME":"STARLINK-5644","OBJECT_ID":"2023-013AQ","EPOCH":"2025-10-18T21:59:13.634592","MEAN_MOTION":15.0263705,"ECCENTRICITY":0.0001388,"INCLINATION":43.007,"RA_OF_ASC_NODE":3.6229,"ARG_OF_PERICENTER":254.8971,"MEAN_ANOMALY":105.1718,"EPHEMERIS_TYPE":0,"CLASSIFICATION_TYPE":"U","NORAD_CAT_ID":55369,"ELEMENT_SET_NO":999,"REV_AT_EPOCH":15023,"BSTAR":-0.0014765132,"MEAN_MOTION_DOT":-0.00020145,"MEAN_MOTION_DDOT":0},{"OBJECT_NAME":"STARLINK-5027","OBJECT_ID":"2023-013AR","EPOCH":"2025-10-18T12:31:18.627168","MEAN_MOTION":15.02530424,"ECCENTRICITY":0.00013024,"INCLINATION":43.0064,"RA_OF_ASC_NODE":5.8255,"ARG_OF_PERICENTER":267.9065,"MEAN_ANOMALY":92.1628,"EPHEMERIS_TYPE":0,"CLASSIFICATION_TYPE":"U","NORAD_CAT_ID":55370,"ELEMENT_SET_NO":999,"REV_AT_EPOCH":15017,"BSTAR":4.885864e-5,"MEAN_MOTION_DOT":4.56e-6,"MEAN_MOTION_DDOT":0},{"OBJECT_NAME":"STARLINK-5590","OBJECT_ID":"2023-013AS","EPOCH":"2025-10-18T21:44:53.398176","MEAN_MOTION":15.02538034,"ECCENTRICITY":9.442e-5,"INCLINATION":43.004,"RA_OF_ASC_NODE":3.5424,"ARG_OF_PERICENTER":270.3863,"MEAN_ANOMALY":89.6872,"EPHEMERIS_TYPE":0,"CLASSIFICATION_TYPE":"U","NORAD_CAT_ID":55371,"ELEMENT_SET_NO":999,"REV_AT_EPOCH":15115,"BSTAR":9.030484e-6,"MEAN_MOTION_DOT":-8.2e-7,"MEAN_MOTION_DDOT":0},{"OBJECT_NAME":"STARLINK-5568","OBJECT_ID":"2023-013AT","EPOCH":"2025-10-18T21:54:28.705536","MEAN_MOTION":15.02537984,"ECCENTRICITY":7.665e-5,"INCLINATION":43.0023,"RA_OF_ASC_NODE":3.5986,"ARG_OF_PERICENTER":265.7734,"MEAN_ANOMALY":94.3021,"EPHEMERIS_TYPE":0,"CLASSIFICATION_TYPE":"U","NORAD_CAT_ID":55372,"ELEMENT_SET_NO":999,"REV_AT_EPOCH":15023,"BSTAR":3.3039396e-5,"MEAN_MOTION_DOT":2.43e-6,"MEAN_MOTION_DDOT":0},{"OBJECT_NAME":"STARLINK-5581","OBJECT_ID":"2023-013AU","EPOCH":"2025-10-18T22:24:49.286592","MEAN_MOTION":15.02607263,"ECCENTRICITY":0.00017155,"INCLINATION":43.0084,"RA_OF_ASC_NODE":3.7521,"ARG_OF_PERICENTER":259.0648,"MEAN_ANOMALY":101.0002,"EPHEMERIS_TYPE":0,"CLASSIFICATION_TYPE":"U","NORAD_CAT_ID":55373,"ELEMENT_SET_NO":999,"REV_AT_EPOCH":15023,"BSTAR":-0.0010640185,"MEAN_MOTION_DOT":-0.00014575,"MEAN_MOTION_DDOT":0},{"OBJECT_NAME":"STARLINK-5578","OBJECT_ID":"2023-013AV","EPOCH":"2025-10-18T05:52:24.633984","MEAN_MOTION":15.02540227,"ECCENTRICITY":0.00010152,"INCLINATION":43.0041,"RA_OF_ASC_NODE":7.1866,"ARG_OF_PERICENTER":268.377,"MEAN_ANOMALY":91.6956,"EPHEMERIS_TYPE":0,"CLASSIFICATION_TYPE":"U","NORAD_CAT_ID":55374,"ELEMENT_SET_NO":999,"REV_AT_EPOCH":15013,"BSTAR":-4.8504186e-5,"MEAN_MOTION_DOT":-8.59e-6,"MEAN_MOTION_DDOT":0},{"OBJECT_NAME":"STARLINK-5588","OBJECT_ID":"2023-013AW","EPOCH":"2025-10-18T13:36:39.403008","MEAN_MOTION":15.02539329,"ECCENTRICITY":9.893e-5,"INCLINATION":43.006,"RA_OF_ASC_NODE":5.3056,"ARG_OF_PERICENTER":271.4801,"MEAN_ANOMALY":88.5928,"EPHEMERIS_TYPE":0,"CLASSIFICATION_TYPE":"U","NORAD_CAT_ID":55375,"ELEMENT_SET_NO":999,"REV_AT_EPOCH":15018,"BSTAR":7.3079954e-5,"MEAN_MOTION_DOT":7.84e-6,"MEAN_MOTION_DDOT":0},{"OBJECT_NAME":"STARLINK-5586","OBJECT_ID":"2023-013AX","EPOCH":"2025-10-18T09:47:45.702240","MEAN_MOTION":15.02534999,"ECCENTRICITY":9.517e-5,"INCLINATION":43.0037,"RA_OF_ASC_NODE":340.6828,"ARG_OF_PERICENTER":263.9308,"MEAN_ANOMALY":96.1426,"EPHEMERIS_TYPE":0,"CLASSIFICATION_TYPE":"U","NORAD_CAT_ID":55376,"ELEMENT_SET_NO":999,"REV_AT_EPOCH":15045,"BSTAR":-1.1819283e-5,"MEAN_MOTION_DOT":-3.63e-6,"MEAN_MOTION_DDOT":0},{"OBJECT_NAME":"STARLINK-5567","OBJECT_ID":"2023-013AY","EPOCH":"2025-10-18T21:16:07.074336","MEAN_MOTION":15.02541272,"ECCENTRICITY":0.00013018,"INCLINATION":43.0053,"RA_OF_ASC_NODE":3.3989,"ARG_OF_PERICENTER":264.5216,"MEAN_ANOMALY":95.5478,"EPHEMERIS_TYPE":0,"CLASSIFICATION_TYPE":"U","NORAD_CAT_ID":55377,"ELEMENT_SET_NO":999,"REV_AT_EPOCH":15023,"BSTAR":7.804675e-5,"MEAN_MOTION_DOT":8.51e-6,"MEAN_MOTION_DDOT":0},{"OBJECT_NAME":"STARLINK-5572","OBJECT_ID":"2023-013AZ","EPOCH":"2025-10-18T21:40:05.696544","MEAN_MOTION":15.02542942,"ECCENTRICITY":0.00019663,"INCLINATION":43.0089,"RA_OF_ASC_NODE":3.5232,"ARG_OF_PERICENTER":271.9657,"MEAN_ANOMALY":88.096,"EPHEMERIS_TYPE":0,"CLASSIFICATION_TYPE":"U","NORAD_CAT_ID":55378,"ELEMENT_SET_NO":999,"REV_AT_EPOCH":15023,"BSTAR":-2.0332159e-5,"MEAN_MOTION_DOT":-4.79e-6,"MEAN_MOTION_DDOT":0},{"OBJECT_NAME":"STARLINK-5569","OBJECT_ID":"2023-013BA","EPOCH":"2025-10-18T21:25:42.510432","MEAN_MOTION":15.0254134,"ECCENTRICITY":0.00013561,"INCLINATION":43.0054,"RA_OF_ASC_NODE":3.4464,"ARG_OF_PERICENTER":261.7478,"MEAN_ANOMALY":98.3211,"EPHEMERIS_TYPE":0,"CLASSIFICATION_TYPE":"U","NORAD_CAT_ID":55379,"ELEMENT_SET_NO":999,"REV_AT_EPOCH":15023,"BSTAR":4.1732579e-5,"MEAN_MOTION_DOT":3.6e-6,"MEAN_MOTION_DDOT":0},{"OBJECT_NAME":"STARLINK-5571","OBJECT_ID":"2023-013BB","EPOCH":"2025-10-18T20:05:06.362016","MEAN_MOTION":15.02537388,"ECCENTRICITY":0.00012393,"INCLINATION":43.0035,"RA_OF_ASC_NODE":337.8888,"ARG_OF_PERICENTER":273.2298,"MEAN_ANOMALY":86.8402,"EPHEMERIS_TYPE":0,"CLASSIFICATION_TYPE":"U","NORAD_CAT_ID":55380,"ELEMENT_SET_NO":999,"REV_AT_EPOCH":15052,"BSTAR":3.2482181e-5,"MEAN_MOTION_DOT":2.35e-6,"MEAN_MOTION_DDOT":0},{"OBJECT_NAME":"STARLINK-5575","OBJECT_ID":"2023-013BC","EPOCH":"2025-10-18T21:20:54.934080","MEAN_MOTION":15.02538243,"ECCENTRICITY":0.00010823,"INCLINATION":43.0051,"RA_OF_ASC_NODE":3.4197,"ARG_OF_PERICENTER":271.4113,"MEAN_ANOMALY":88.6605,"EPHEMERIS_TYPE":0,"CLASSIFICATION_TYPE":"U","NORAD_CAT_ID":55381,"ELEMENT_SET_NO":999,"REV_AT_EPOCH":15023,"BSTAR":4.7522393e-5,"MEAN_MOTION_DOT":4.38e-6,"MEAN_MOTION_DDOT":0},{"OBJECT_NAME":"STARLINK-5576","OBJECT_ID":"2023-013BD","EPOCH":"2025-10-18T21:30:30.196512","MEAN_MOTION":15.02541212,"ECCENTRICITY":0.00013965,"INCLINATION":43.0066,"RA_OF_ASC_NODE":3.4741,"ARG_OF_PERICENTER":270.2014,"MEAN_ANOMALY":89.8669,"EPHEMERIS_TYPE":0,"CLASSIFICATION_TYPE":"U","NORAD_CAT_ID":55382,"ELEMENT_SET_NO":999,"REV_AT_EPOCH":15023,"BSTAR":8.1208234e-5,"MEAN_MOTION_DOT":8.94e-6,"MEAN_MOTION_DDOT":0},{"OBJECT_NAME":"STARLINK-5531","OBJECT_ID":"2023-013BE","EPOCH":"2025-10-18T20:00:18.453888","MEAN_MOTION":15.02543423,"ECCENTRICITY":0.00014758,"INCLINATION":43.002,"RA_OF_ASC_NODE":337.8627,"ARG_OF_PERICENTER":264.6511,"MEAN_ANOMALY":95.4163,"EPHEMERIS_TYPE":0,"CLASSIFICATION_TYPE":"U","NORAD_CAT_ID":55383,"ELEMENT_SET_NO":999,"REV_AT_EPOCH":15052,"BSTAR":9.4022806e-5,"MEAN_MOTION_DOT":1.067e-5,"MEAN_MOTION_DDOT":0},{"OBJECT_NAME":"STARLINK-5537","OBJECT_ID":"2023-013BF","EPOCH":"2025-10-18T21:27:18.780768","MEAN_MOTION":15.02538463,"ECCENTRICITY":0.0001301,"INCLINATION":43.0064,"RA_OF_ASC_NODE":3.4585,"ARG_OF_PERICENTER":260.9577,"MEAN_ANOMALY":99.1119,"EPHEMERIS_TYPE":0,"CLASSIFICATION_TYPE":"U","NORAD_CAT_ID":55384,"ELEMENT_SET_NO":999,"REV_AT_EPOCH":15023,"BSTAR":3.5321655e-5,"MEAN_MOTION_DOT":2.74e-6,"MEAN_MOTION_DDOT":0}]
