STARLINK-5644           
1 55369U 23013AQ  25291.91613003 -.00020145  00000+0 -14765-2 0  9997
2 55369  43.0070   3.6229 0001388 254.8971 105.1718 15.02637050150235
STARLINK-5027           
1 55370U 23013AR  25291.52174337  .00000456  00000+0  48859-4 0  9992
2 55370  43.0064   5.8255 0001302 267.9065  92.1628 15.02530424150173
STARLINK-5590           
1 55371U 23013AS  25291.90617359 -.00000082  00000+0  90305-5 0  9991
2 55371  43.0040   3.5424 0000944 270.3863  89.6872 15.02538034151152
STARLINK-5568           
1 55372U 23013AT  25291.91283224  .00000243  00000+0  33039-4 0  9991
2 55372  43.0023   3.5986 0000766 265.7734  94.3021 15.02537984150234
STARLINK-5581           
1 55373U 23013AU  25291.93390378 -.00014575  00000+0 -10640-2 0  9999
2 55373  43.0084   3.7521 0001715 259.0648 101.0002 15.02607263150237
STARLINK-5578           
1 55374U 23013AV  25291.24472956 -.00000859  00000+0 -48504-4 0  9999
2 55374  43.0041   7.1866 0001015 268.3770  91.6956 15.02540227150130
STARLINK-5588           
1 55375U 23013AW  25291.56712272  .00000784  00000+0  73080-4 0  9995
2 55375  43.0060   5.3056 0000989 271.4801  88.5928 15.02539329150182
STARLINK-5586           
1 55376U 23013AX  25291.40816785 -.00000363  00000+0 -11819-4 0  9990
2 55376  43.0037 340.6828 0000951 263.9308  96.1426 15.02534999150452
STARLINK-5567           
1 55377U 23013AY  25291.88619299  .00000851  00000+0  78047-4 0  9990
2 55377  43.0053   3.3989 0001301 264.5216  95.5478 15.02541272150235
STARLINK-5572           
1 55378U 23013AZ  25291.90284371 -.00000479  00000+0 -20332-4 0  9995
2 55378  43.0089   3.5232 0001966 271.9657  88.0960 15.02542942150234
STARLINK-5569           
1 55379U 23013BA  25291.89285313  .00000360  00000+0  41733-4 0  9996
2 55379  43.0054   3.4464 0001356 261.7478  98.3211 15.02541340150238
STARLINK-5571           
1 55380U 23013BB  25291.83687919  .00000235  00000+0  32482-4 0  9992
2 55380  43.0035 337.8888 0001239 273.2298  86.8402 15.02537388150524
STARLINK-5575           
1 55381U 23013BC  25291.88952470  .00000438  00000+0  47522-4 0  9991
2 55381  43.0051   3.4197 0001082 271.4113  88.6605 15.02538243150238
STARLINK-5576           
1 55382U 23013BD  25291.89618283  .00000894  00000+0  81208-4 0  9999
2 55382  43.0066   3.4741 0001396 270.2014  89.8669 15.02541212150238
STARLINK-5531           
1 55383U 23013BE  25291.83354692  .00001067  00000+0  94023-4 0  9997
2 55383  43.0020 337.8627 0001475 264.6511  95.4163 15.02543423150523
STARLINK-5537           
1 55384U 23013BF  25291.89396737  .00000274  00000+0  35322-4 0  9996
2 55384  43.0064   3.4585 0001301 260.9577  99.1119 15.02538463150238
